{
  "type": "FeatureCollection",
  "features": [
    {
      "type": "Feature",
      "properties": {
        "norad_id": 38709,
        "name": "EXACTVIEW-1 (ADS-1B)",
        "group": "resource",
        "lat": -40.74619395437343,
        "lon": 103.58588950595014,
        "alt_km": 808.9120384234766,
        "timestamp": "2025-12-13T08:49:15.350386+00:00",
        "meta_object_name": "EXACTVIEW-1 (ADS-1B)",
        "meta_object_id": "2012-039C",
        "meta_epoch": "2025-12-12T21:13:02.712288",
        "meta_mean_motion": 14.24908204,
        "meta_eccentricity": 0.0010667,
        "meta_inclination": 98.9636,
        "meta_ra_of_asc_node": 95.2771,
        "meta_arg_of_pericenter": 353.8159,
        "meta_mean_anomaly": 6.2886,
        "meta_ephemeris_type": 0,
        "meta_classification_type": "U",
        "meta_norad_cat_id": 38709,
        "meta_element_set_no": 999,
        "meta_rev_at_epoch": 69617,
        "meta_bstar": 0.00013106237,
        "meta_mean_motion_dot": 2.6e-06,
        "meta_mean_motion_ddot": 0,
        "tle_line1": "1 38709U 12039C   25346.88405917  .00000260  00000+0  13106-3 0  9995",
        "tle_line2": "2 38709  98.9636  95.2771 0010667 353.8159   6.2886 14.24908204696178"
      },
      "geometry": {
        "type": "Point",
        "coordinates": [
          103.58588950595014,
          -40.74619395437343
        ]
      }
    },
    {
      "type": "Feature",
      "properties": {
        "norad_id": 38755,
        "name": "SPOT 6",
        "group": "resource",
        "lat": 61.96276228071186,
        "lon": 36.5160223493184,
        "alt_km": 690.9660650481728,
        "timestamp": "2025-12-13T08:49:15.350396+00:00",
        "meta_object_name": "SPOT 6",
        "meta_object_id": "2012-047A",
        "meta_epoch": "2025-12-13T00:18:03.064608",
        "meta_mean_motion": 14.58604172,
        "meta_eccentricity": 0.00011558,
        "meta_inclination": 98.1568,
        "meta_ra_of_asc_node": 51.7917,
        "meta_arg_of_pericenter": 98.3239,
        "meta_mean_anomaly": 261.8091,
        "meta_ephemeris_type": 0,
        "meta_classification_type": "U",
        "meta_norad_cat_id": 38755,
        "meta_element_set_no": 999,
        "meta_rev_at_epoch": 70591,
        "meta_bstar": 0.00019052854,
        "meta_mean_motion_dot": 8.41e-06,
        "meta_mean_motion_ddot": 0,
        "tle_line1": "1 38755U 12047A   25347.01253547  .00000841  00000+0  19053-3 0  9993",
        "tle_line2": "2 38755  98.1568  51.7917 0001155  98.3239 261.8091 14.58604172705910"
      },
      "geometry": {
        "type": "Point",
        "coordinates": [
          36.5160223493184,
          61.96276228071186
        ]
      }
    },
    {
      "type": "Feature",
      "properties": {
        "norad_id": 39019,
        "name": "PLEIADES 1B",
        "group": "resource",
        "lat": -38.060855379549714,
        "lon": 66.47451041027269,
        "alt_km": 704.715885840692,
        "timestamp": "2025-12-13T08:49:15.350406+00:00",
        "meta_object_name": "PLEIADES 1B",
        "meta_object_id": "2012-068A",
        "meta_epoch": "2025-12-13T00:45:54.044928",
        "meta_mean_motion": 14.58553817,
        "meta_eccentricity": 0.00012287,
        "meta_inclination": 98.1788,
        "meta_ra_of_asc_node": 59.6784,
        "meta_arg_of_pericenter": 84.0976,
        "meta_mean_anomaly": 276.0363,
        "meta_ephemeris_type": 0,
        "meta_classification_type": "U",
        "meta_norad_cat_id": 39019,
        "meta_element_set_no": 999,
        "meta_rev_at_epoch": 69371,
        "meta_bstar": 0.00019086653,
        "meta_mean_motion_dot": 8.42e-06,
        "meta_mean_motion_ddot": 0,
        "tle_line1": "1 39019U 12068A   25347.03187552  .00000842  00000+0  19087-3 0  9992",
        "tle_line2": "2 39019  98.1788  59.6784 0001228  84.0976 276.0363 14.58553817693711"
      },
      "geometry": {
        "type": "Point",
        "coordinates": [
          66.47451041027269,
          -38.060855379549714
        ]
      }
    },
    {
      "type": "Feature",
      "properties": {
        "norad_id": 39030,
        "name": "GOKTURK 2",
        "group": "resource",
        "lat": -34.44387299971118,
        "lon": 3.673306069488499,
        "alt_km": 650.7419729477588,
        "timestamp": "2025-12-13T08:49:15.350417+00:00",
        "meta_object_name": "GOKTURK 2",
        "meta_object_id": "2012-073A",
        "meta_epoch": "2025-12-12T23:42:42.693696",
        "meta_mean_motion": 14.75292595,
        "meta_eccentricity": 0.00010069,
        "meta_inclination": 97.6895,
        "meta_ra_of_asc_node": 188.6294,
        "meta_arg_of_pericenter": 103.4417,
        "meta_mean_anomaly": 256.6905,
        "meta_ephemeris_type": 0,
        "meta_classification_type": "U",
        "meta_norad_cat_id": 39030,
        "meta_element_set_no": 999,
        "meta_rev_at_epoch": 69705,
        "meta_bstar": 0.00020047793,
        "meta_mean_motion_dot": 1.311e-05,
        "meta_mean_motion_ddot": 0,
        "tle_line1": "1 39030U 12073A   25346.98799414  .00001311  00000+0  20048-3 0  9991",
        "tle_line2": "2 39030  97.6895 188.6294 0001006 103.4417 256.6905 14.75292595697055"
      },
      "geometry": {
        "type": "Point",
        "coordinates": [
          3.673306069488499,
          -34.44387299971118
        ]
      }
    },
    {
      "type": "Feature",
      "properties": {
        "norad_id": 39084,
        "name": "LANDSAT 8",
        "group": "resource",
        "lat": 50.81358715163272,
        "lon": -114.37045365723338,
        "alt_km": 697.2341370224867,
        "timestamp": "2025-12-13T08:49:15.350427+00:00",
        "meta_object_name": "LANDSAT 8",
        "meta_object_id": "2013-008A",
        "meta_epoch": "2025-12-12T23:59:36.633984",
        "meta_mean_motion": 14.57114446,
        "meta_eccentricity": 0.00010922,
        "meta_inclination": 98.2073,
        "meta_ra_of_asc_node": 55.0693,
        "meta_arg_of_pericenter": 88.9847,
        "meta_mean_anomaly": 271.1476,
        "meta_ephemeris_type": 0,
        "meta_classification_type": "U",
        "meta_norad_cat_id": 39084,
        "meta_element_set_no": 999,
        "meta_rev_at_epoch": 67078,
        "meta_bstar": 0.00015629457,
        "meta_mean_motion_dot": 6.59e-06,
        "meta_mean_motion_ddot": 0,
        "tle_line1": "1 39084U 13008A   25346.99972956  .00000659  00000+0  15629-3 0  9997",
        "tle_line2": "2 39084  98.2073  55.0693 0001092  88.9847 271.1476 14.57114446670782"
      },
      "geometry": {
        "type": "Point",
        "coordinates": [
          -114.37045365723338,
          50.81358715163272
        ]
      }
    },
    {
      "type": "Feature",
      "properties": {
        "norad_id": 39086,
        "name": "SARAL",
        "group": "resource",
        "lat": 57.98144458010257,
        "lon": 157.36829737864892,
        "alt_km": 775.5393174160081,
        "timestamp": "2025-12-13T08:49:15.350437+00:00",
        "meta_object_name": "SARAL",
        "meta_object_id": "2013-009A",
        "meta_epoch": "2025-12-13T00:09:58.243104",
        "meta_mean_motion": 14.32757173,
        "meta_eccentricity": 0.00028722,
        "meta_inclination": 98.5503,
        "meta_ra_of_asc_node": 170.9339,
        "meta_arg_of_pericenter": 108.1652,
        "meta_mean_anomaly": 251.9845,
        "meta_ephemeris_type": 0,
        "meta_classification_type": "U",
        "meta_norad_cat_id": 39086,
        "meta_element_set_no": 999,
        "meta_rev_at_epoch": 66894,
        "meta_bstar": 9.0496906e-05,
        "meta_mean_motion_dot": 2.03e-06,
        "meta_mean_motion_ddot": 0,
        "tle_line1": "1 39086U 13009A   25347.00692411  .00000203  00000+0  90497-4 0  9990",
        "tle_line2": "2 39086  98.5503 170.9339 0002872 108.1652 251.9845 14.32757173668949"
      },
      "geometry": {
        "type": "Point",
        "coordinates": [
          157.36829737864892,
          57.98144458010257
        ]
      }
    },
    {
      "type": "Feature",
      "properties": {
        "norad_id": 39150,
        "name": "GAOFEN-1",
        "group": "resource",
        "lat": -63.31084746775485,
        "lon": 74.11748408799757,
        "alt_km": 659.0515127643794,
        "timestamp": "2025-12-13T08:49:15.350447+00:00",
        "meta_object_name": "GAOFEN-1",
        "meta_object_id": "2013-018A",
        "meta_epoch": "2025-12-13T00:58:52.533984",
        "meta_mean_motion": 14.76536722,
        "meta_eccentricity": 0.00182564,
        "meta_inclination": 97.9322,
        "meta_ra_of_asc_node": 57.6944,
        "meta_arg_of_pericenter": 142.0404,
        "meta_mean_anomaly": 218.2097,
        "meta_ephemeris_type": 0,
        "meta_classification_type": "U",
        "meta_norad_cat_id": 39150,
        "meta_element_set_no": 999,
        "meta_rev_at_epoch": 68077,
        "meta_bstar": 0.00026538972,
        "meta_mean_motion_dot": 1.804e-05,
        "meta_mean_motion_ddot": 0,
        "tle_line1": "1 39150U 13018A   25347.04088581  .00001804  00000+0  26539-3 0  9996",
        "tle_line2": "2 39150  97.9322  57.6944 0018256 142.0404 218.2097 14.76536722680774"
      },
      "geometry": {
        "type": "Point",
        "coordinates": [
          74.11748408799757,
          -63.31084746775485
        ]
      }
    }
  ]
}